HST                     
1 20580U 90037B   26065.09294664  .00008390  00000+0  27790-3 0  9990
2 20580  28.4707  64.5335 0001795  90.2676 269.8125 15.29414630772760
POLAR                   
1 23802U 96013A   26064.05696403  .00000171  00000+0  00000+0 0  9992
2 23802  79.7448 228.2423 6364650 212.6113  83.8068  1.29845804143502
SWAS                    
1 25560U 98071A   26065.28649109  .00005223  00000+0  33732-3 0  9993
2 25560  69.8958 132.7338 0003816  18.5947 341.5356 15.08853691481741
CXO                     
1 25867U 99040B   26066.24394024  .00000830  00000+0  00000+0 0  9997
2 25867  54.5001 119.7161 7997894 310.7431   0.4039  0.37807298 16943
XMM-NEWTON              
1 25989U 99066A   26061.64181856  .00000062  00000+0  00000+0 0  9993
2 25989  65.0189 284.3763 4712552  66.8130 359.9781  0.50131664 22470
TERRA                   
1 25994U 99068A   26065.22407828  .00000628  00000+0  13705-3 0  9997
2 25994  97.9600 118.7911 0002496 159.7278 270.0945 14.61010573394573
CLUSTER II-FM7 (SAMBA)  
1 26410U 00041A   26063.25310773  .00003639  00000+0  00000+0 0  9992
2 26410 148.9920  34.5676 8908777 250.6745 359.7226  0.44785609 19832
CLUSTER II-FM8 (TANGO)  
1 26464U 00045B   26049.06287974  .00004776  00000+0  00000+0 0  9997
2 26464 149.0711  33.5376 8890045 249.4570 359.4916  0.44405995 19769
ODIN                    
1 26702U 01007A   26065.19539485  .00048686  00000+0  64255-3 0  9994
2 26702  97.4078 101.0979 0004387 149.3834 210.7678 15.58237589373293
TIMED                   
1 26998U 01055B   26065.16626879  .00001658  00000+0  15516-3 0  9999
2 26998  74.0660  82.4121 0002998 279.6089  80.4756 14.95007977315420
CORIOLIS                
1 27640U 03001A   26065.24677994  .00000198  00000+0  11355-3 0  9995
2 27640  98.7162  73.6920 0014630 145.9448 214.2670 14.19911267199619
SORCE                   
1 27651U 03004A   26065.24419010  .00004366  00000+0  32831-3 0  9996
2 27651  39.9902 128.7394 0016266  28.8271 331.3419 15.03066339256405
MOST                    
1 27843U 03031D   26065.00887093  .00000097  00000+0  64363-4 0  9996
2 27843  98.7083  74.1611 0009734 184.1705 175.9392 14.21297976176053
SCISAT 1                
1 27858U 03036A   26065.23866200  .00001319  00000+0  17359-3 0  9999
2 27858  73.9319  15.8679 0005857 107.9857 252.1958 14.81303938216205
SWIFT                   
1 28485U 04047A   26064.77024317  .00045464  00000+0  54948-3 0  9996
2 28485  20.5529 257.0201 0003270 342.7398  17.2934 15.58889158170650
HINODE (SOLAR-B)        
1 29479U 06041A   26065.02834249  .00000824  00000+0  15045-3 0  9994
2 29479  98.0626  82.6771 0016202 254.1121 105.8299 14.68466392 39737
SHIJIAN-6 02A (SJ-6 02A)
1 29505U 06046A   26065.34443228  .00008984  00000+0  47578-3 0  9998
2 29505  97.6498 105.6627 0004572 120.7484 239.4199 15.15641346 56685
