[{"OBJECT_NAME":"HST","OBJECT_ID":"1990-037B","EPOCH":"2026-03-06T02:13:50.589696","MEAN_MOTION":15.2941463,"ECCENTRICITY":0.00017959,"INCLINATION":28.4707,"RA_OF_ASC_NODE":64.5335,"ARG_OF_PERICENTER":90.2676,"MEAN_ANOMALY":269.8125,"EPHEMERIS_TYPE":0,"CLASSIFICATION_TYPE":"U","NORAD_CAT_ID":20580,"ELEMENT_SET_NO":999,"REV_AT_EPOCH":77276,"BSTAR":0.00027789618,"MEAN_MOTION_DOT":8.39e-5,"MEAN_MOTION_DDOT":0},{"OBJECT_NAME":"POLAR","OBJECT_ID":"1996-013A","EPOCH":"2026-03-05T01:22:01.692192","MEAN_MOTION":1.29845804,"ECCENTRICITY":0.63646509,"INCLINATION":79.7448,"RA_OF_ASC_NODE":228.2423,"ARG_OF_PERICENTER":212.6113,"MEAN_ANOMALY":83.8068,"EPHEMERIS_TYPE":0,"CLASSIFICATION_TYPE":"U","NORAD_CAT_ID":23802,"ELEMENT_SET_NO":999,"REV_AT_EPOCH":14350,"BSTAR":0,"MEAN_MOTION_DOT":1.71e-6,"MEAN_MOTION_DDOT":0},{"OBJECT_NAME":"SWAS","OBJECT_ID":"1998-071A","EPOCH":"2026-03-06T06:52:32.830176","MEAN_MOTION":15.08853691,"ECCENTRICITY":0.00038169,"INCLINATION":69.8958,"RA_OF_ASC_NODE":132.7338,"ARG_OF_PERICENTER":18.5947,"MEAN_ANOMALY":341.5356,"EPHEMERIS_TYPE":0,"CLASSIFICATION_TYPE":"U","NORAD_CAT_ID":25560,"ELEMENT_SET_NO":999,"REV_AT_EPOCH":48174,"BSTAR":0.00033731716,"MEAN_MOTION_DOT":5.223e-5,"MEAN_MOTION_DDOT":0},{"OBJECT_NAME":"CXO","OBJECT_ID":"1999-040B","EPOCH":"2026-03-07T05:51:16.436736","MEAN_MOTION":0.37807298,"ECCENTRICITY":0.79978948,"INCLINATION":54.5001,"RA_OF_ASC_NODE":119.7161,"ARG_OF_PERICENTER":310.7431,"MEAN_ANOMALY":0.4039,"EPHEMERIS_TYPE":0,"CLASSIFICATION_TYPE":"U","NORAD_CAT_ID":25867,"ELEMENT_SET_NO":999,"REV_AT_EPOCH":1694,"BSTAR":0,"MEAN_MOTION_DOT":8.3e-6,"MEAN_MOTION_DDOT":0},{"OBJECT_NAME":"XMM-NEWTON","OBJECT_ID":"1999-066A","EPOCH":"2026-03-02T15:24:13.123584","MEAN_MOTION":0.50131664,"ECCENTRICITY":0.47125523,"INCLINATION":65.0189,"RA_OF_ASC_NODE":284.3763,"ARG_OF_PERICENTER":66.813,"MEAN_ANOMALY":359.9781,"EPHEMERIS_TYPE":0,"CLASSIFICATION_TYPE":"U","NORAD_CAT_ID":25989,"ELEMENT_SET_NO":999,"REV_AT_EPOCH":2247,"BSTAR":0,"MEAN_MOTION_DOT":6.2e-7,"MEAN_MOTION_DDOT":0},{"OBJECT_NAME":"TERRA","OBJECT_ID":"1999-068A","EPOCH":"2026-03-06T05:22:40.363392","MEAN_MOTION":14.61010573,"ECCENTRICITY":0.00024965,"INCLINATION":97.96,"RA_OF_ASC_NODE":118.7911,"ARG_OF_PERICENTER":159.7278,"MEAN_ANOMALY":270.0945,"EPHEMERIS_TYPE":0,"CLASSIFICATION_TYPE":"U","NORAD_CAT_ID":25994,"ELEMENT_SET_NO":999,"REV_AT_EPOCH":39457,"BSTAR":0.00013705483,"MEAN_MOTION_DOT":6.28e-6,"MEAN_MOTION_DDOT":0},{"OBJECT_NAME":"CLUSTER II-FM7 (SAMBA)","OBJECT_ID":"2000-041A","EPOCH":"2026-03-04T06:04:28.507872","MEAN_MOTION":0.44785609,"ECCENTRICITY":0.89087774,"INCLINATION":148.992,"RA_OF_ASC_NODE":34.5676,"ARG_OF_PERICENTER":250.6745,"MEAN_ANOMALY":359.7226,"EPHEMERIS_TYPE":0,"CLASSIFICATION_TYPE":"U","NORAD_CAT_ID":26410,"ELEMENT_SET_NO":999,"REV_AT_EPOCH":1983,"BSTAR":0,"MEAN_MOTION_DOT":3.639e-5,"MEAN_MOTION_DDOT":0},{"OBJECT_NAME":"CLUSTER II-FM8 (TANGO)","OBJECT_ID":"2000-045B","EPOCH":"2026-02-18T01:30:32.809536","MEAN_MOTION":0.44405995,"ECCENTRICITY":0.88900451,"INCLINATION":149.0711,"RA_OF_ASC_NODE":33.5376,"ARG_OF_PERICENTER":249.457,"MEAN_ANOMALY":359.4916,"EPHEMERIS_TYPE":0,"CLASSIFICATION_TYPE":"U","NORAD_CAT_ID":26464,"ELEMENT_SET_NO":999,"REV_AT_EPOCH":1976,"BSTAR":0,"MEAN_MOTION_DOT":4.776e-5,"MEAN_MOTION_DDOT":0},{"OBJECT_NAME":"ODIN","OBJECT_ID":"2001-007A","EPOCH":"2026-03-06T04:41:22.115040","MEAN_MOTION":15.58237589,"ECCENTRICITY":0.00043871,"INCLINATION":97.4078,"RA_OF_ASC_NODE":101.0979,"ARG_OF_PERICENTER":149.3834,"MEAN_ANOMALY":210.7678,"EPHEMERIS_TYPE":0,"CLASSIFICATION_TYPE":"U","NORAD_CAT_ID":26702,"ELEMENT_SET_NO":999,"REV_AT_EPOCH":37329,"BSTAR":0.00064255488,"MEAN_MOTION_DOT":0.00048686,"MEAN_MOTION_DDOT":0},{"OBJECT_NAME":"TIMED","OBJECT_ID":"2001-055B","EPOCH":"2026-03-06T03:59:25.623456","MEAN_MOTION":14.95007977,"ECCENTRICITY":0.00029989,"INCLINATION":74.066,"RA_OF_ASC_NODE":82.4121,"ARG_OF_PERICENTER":279.6089,"MEAN_ANOMALY":80.4756,"EPHEMERIS_TYPE":0,"CLASSIFICATION_TYPE":"U","NORAD_CAT_ID":26998,"ELEMENT_SET_NO":999,"REV_AT_EPOCH":31542,"BSTAR":0.00015515994,"MEAN_MOTION_DOT":1.658e-5,"MEAN_MOTION_DDOT":0},{"OBJECT_NAME":"CORIOLIS","OBJECT_ID":"2003-001A","EPOCH":"2026-03-06T05:55:21.786816","MEAN_MOTION":14.19911267,"ECCENTRICITY":0.001463,"INCLINATION":98.7162,"RA_OF_ASC_NODE":73.692,"ARG_OF_PERICENTER":145.9448,"MEAN_ANOMALY":214.267,"EPHEMERIS_TYPE":0,"CLASSIFICATION_TYPE":"U","NORAD_CAT_ID":27640,"ELEMENT_SET_NO":999,"REV_AT_EPOCH":19961,"BSTAR":0.00011354809,"MEAN_MOTION_DOT":1.98e-6,"MEAN_MOTION_DDOT":0},{"OBJECT_NAME":"SORCE","OBJECT_ID":"2003-004A","EPOCH":"2026-03-06T05:51:38.024640","MEAN_MOTION":15.03066339,"ECCENTRICITY":0.00162665,"INCLINATION":39.9902,"RA_OF_ASC_NODE":128.7394,"ARG_OF_PERICENTER":28.8271,"MEAN_ANOMALY":331.3419,"EPHEMERIS_TYPE":0,"CLASSIFICATION_TYPE":"U","NORAD_CAT_ID":27651,"ELEMENT_SET_NO":999,"REV_AT_EPOCH":25640,"BSTAR":0.00032831041,"MEAN_MOTION_DOT":4.366e-5,"MEAN_MOTION_DDOT":0},{"OBJECT_NAME":"MOST","OBJECT_ID":"2003-031D","EPOCH":"2026-03-06T00:12:46.448352","MEAN_MOTION":14.21297976,"ECCENTRICITY":0.00097347,"INCLINATION":98.7083,"RA_OF_ASC_NODE":74.1611,"ARG_OF_PERICENTER":184.1705,"MEAN_ANOMALY":175.9392,"EPHEMERIS_TYPE":0,"CLASSIFICATION_TYPE":"U","NORAD_CAT_ID":27843,"ELEMENT_SET_NO":999,"REV_AT_EPOCH":17605,"BSTAR":6.4363402e-5,"MEAN_MOTION_DOT":9.7e-7,"MEAN_MOTION_DDOT":0},{"OBJECT_NAME":"SCISAT 1","OBJECT_ID":"2003-036A","EPOCH":"2026-03-06T05:43:40.396800","MEAN_MOTION":14.81303938,"ECCENTRICITY":0.00058577,"INCLINATION":73.9319,"RA_OF_ASC_NODE":15.8679,"ARG_OF_PERICENTER":107.9857,"MEAN_ANOMALY":252.1958,"EPHEMERIS_TYPE":0,"CLASSIFICATION_TYPE":"U","NORAD_CAT_ID":27858,"ELEMENT_SET_NO":999,"REV_AT_EPOCH":21620,"BSTAR":0.00017359261,"MEAN_MOTION_DOT":1.319e-5,"MEAN_MOTION_DDOT":0},{"OBJECT_NAME":"SWIFT","OBJECT_ID":"2004-047A","EPOCH":"2026-03-05T18:29:09.009888","MEAN_MOTION":15.58889158,"ECCENTRICITY":0.00032704,"INCLINATION":20.5529,"RA_OF_ASC_NODE":257.0201,"ARG_OF_PERICENTER":342.7398,"MEAN_ANOMALY":17.2934,"EPHEMERIS_TYPE":0,"CLASSIFICATION_TYPE":"U","NORAD_CAT_ID":28485,"ELEMENT_SET_NO":999,"REV_AT_EPOCH":17065,"BSTAR":0.00054948009,"MEAN_MOTION_DOT":0.00045464,"MEAN_MOTION_DDOT":0},{"OBJECT_NAME":"HINODE (SOLAR-B)","OBJECT_ID":"2006-041A","EPOCH":"2026-03-06T00:40:48.791136","MEAN_MOTION":14.68466392,"ECCENTRICITY":0.00162022,"INCLINATION":98.0626,"RA_OF_ASC_NODE":82.6771,"ARG_OF_PERICENTER":254.1121,"MEAN_ANOMALY":105.8299,"EPHEMERIS_TYPE":0,"CLASSIFICATION_TYPE":"U","NORAD_CAT_ID":29479,"ELEMENT_SET_NO":999,"REV_AT_EPOCH":3973,"BSTAR":0.00015044751,"MEAN_MOTION_DOT":8.24e-6,"MEAN_MOTION_DDOT":0},{"OBJECT_NAME":"SHIJIAN-6 02A (SJ-6 02A)","OBJECT_ID":"2006-046A","EPOCH":"2026-03-06T08:15:58.948992","MEAN_MOTION":15.15641346,"ECCENTRICITY":0.00045726,"INCLINATION":97.6498,"RA_OF_ASC_NODE":105.6627,"ARG_OF_PERICENTER":120.7484,"MEAN_ANOMALY":239.4199,"EPHEMERIS_TYPE":0,"CLASSIFICATION_TYPE":"U","NORAD_CAT_ID":29505,"ELEMENT_SET_NO":999,"REV_AT_EPOCH":5668,"BSTAR":0.0004757821,"MEAN_MOTION_DOT":8.984e-5,"MEAN_MOTION_DDOT":0}]
